{
"type": "FeatureCollection",
"crs": { "type": "name", "properties": { "name": "urn:ogc:def:crs:OGC:1.3:CRS84" } },
                                                                                
"features": [
{ "type": "Feature", "properties": { "address": "11701 S. La Cienega", "city": "Los Angeles", "state": "CA", "zip": "90045", "addrtype": "premise", "addrlocat": "ROOFTOP" }, "geometry": { "type": "Point", "coordinates": [ -118.3714234, 33.9282328 ] } },
{ "type": "Feature", "properties": { "address": "1040 W. Avenue J", "city": "Lancaster", "state": "CA", "zip": "93534", "addrtype": "street_address", "addrlocat": "ROOFTOP" }, "geometry": { "type": "Point", "coordinates": [ -118.1495745, 34.6884472 ] } },
{ "type": "Feature", "properties": { "address": "150 West Commonwealth", "city": "Alhambra", "state": "CA", "zip": "91801", "addrtype": "premise", "addrlocat": "ROOFTOP" }, "geometry": { "type": "Point", "coordinates": [ -118.12607130000001, 34.0911075 ] } },
{ "type": "Feature", "properties": { "address": "10025 East Flower Street", "city": "Bellflower", "state": "CA", "zip": "90706", "addrtype": "premise", "addrlocat": "ROOFTOP" }, "geometry": { "type": "Point", "coordinates": [ -118.1203141, 33.8827765 ] } },
{ "type": "Feature", "properties": { "address": "9355 Burton Way", "city": "Beverly Hills", "state": "CA", "zip": "90210", "addrtype": "premise", "addrlocat": "ROOFTOP" }, "geometry": { "type": "Point", "coordinates": [ -118.3979861, 34.0726307 ] } },
{ "type": "Feature", "properties": { "address": "300 East Olive", "city": "Burbank", "state": "CA", "zip": "91502", "addrtype": "premise", "addrlocat": "ROOFTOP" }, "geometry": { "type": "Point", "coordinates": [ -118.306801, 34.1821683 ] } },
{ "type": "Feature", "properties": { "address": "215 Sumner Avenue", "city": "Avalon", "state": "CA", "zip": "90704", "addrtype": "street_address", "addrlocat": "ROOFTOP" }, "geometry": { "type": "Point", "coordinates": [ -118.327168, 33.34311 ] } },
{ "type": "Feature", "properties": { "address": "429 Bauchet St.", "city": "Los Angeles", "state": "CA", "zip": "90012", "addrtype": "street_address", "addrlocat": "ROOFTOP" }, "geometry": { "type": "Point", "coordinates": [ -118.2318341, 34.0598303 ] } },
{ "type": "Feature", "properties": { "address": "600 South Commonwealth Ave.", "city": "Los Angeles", "state": "CA", "zip": "90005", "addrtype": "premise", "addrlocat": "ROOFTOP" }, "geometry": { "type": "Point", "coordinates": [ -118.2851738, 34.0632351 ] } },
{ "type": "Feature", "properties": { "address": "9425 Penfield Ave.", "city": "Chatsworth", "state": "CA", "zip": "91311", "addrtype": "premise", "addrlocat": "ROOFTOP" }, "geometry": { "type": "Point", "coordinates": [ -118.57027480000001, 34.2412716 ] } },
{ "type": "Feature", "properties": { "address": "210 West Temple Street", "city": "Los Angeles", "state": "CA", "zip": "90012", "addrtype": "street_address", "addrlocat": "ROOFTOP" }, "geometry": { "type": "Point", "coordinates": [ -118.2432169, 34.0550082 ] } },
{ "type": "Feature", "properties": { "address": "200 West Compton Blvd.", "city": "Compton", "state": "CA", "zip": "90220", "addrtype": "premise", "addrlocat": "ROOFTOP" }, "geometry": { "type": "Point", "coordinates": [ -118.2254033, 33.8941751 ] } },
{ "type": "Feature", "properties": { "address": "7500 East Imperial Highway", "city": "Downey", "state": "CA", "zip": "90242", "addrtype": "premise", "addrlocat": "ROOFTOP" }, "geometry": { "type": "Point", "coordinates": [ -118.1600807, 33.927294 ] } },
{ "type": "Feature", "properties": { "address": "4848 E. Civic Center Way", "city": "Los Angeles", "state": "CA", "zip": "90022", "addrtype": "street_address", "addrlocat": "ROOFTOP" }, "geometry": { "type": "Point", "coordinates": [ -118.1606148, 34.0348547 ] } },
{ "type": "Feature", "properties": { "address": "1601 Eastlake Avenue", "city": "Los Angeles", "state": "CA", "zip": "90033", "addrtype": "street_address", "addrlocat": "ROOFTOP" }, "geometry": { "type": "Point", "coordinates": [ -118.20605380000001, 34.0627814 ] } },
{ "type": "Feature", "properties": { "address": "201 Centre Plaza Drive", "city": "Monterey Park", "state": "CA", "zip": "91754", "addrtype": "premise", "addrlocat": "ROOFTOP" }, "geometry": { "type": "Point", "coordinates": [ -118.1667501, 34.0583661 ] } },
{ "type": "Feature", "properties": { "address": "11234 East Valley Blvd.", "city": "El Monte", "state": "CA", "zip": "91731", "addrtype": "premise", "addrlocat": "ROOFTOP" }, "geometry": { "type": "Point", "coordinates": [ -118.031654, 34.0709537 ] } },
{ "type": "Feature", "properties": { "address": "600 East Broadway", "city": "Glendale", "state": "CA", "zip": "91206", "addrtype": "street_address", "addrlocat": "ROOFTOP" }, "geometry": { "type": "Point", "coordinates": [ -118.2481289, 34.1461042 ] } },
{ "type": "Feature", "properties": { "address": "275 Magnolia", "city": "Long Beach", "state": "CA", "zip": "90802", "addrtype": "street_address", "addrlocat": "ROOFTOP" }, "geometry": { "type": "Point", "coordinates": [ -118.1988614, 33.7699437 ] } },
{ "type": "Feature", "properties": { "address": "5925 Hollywood Blvd.", "city": "Los Angeles", "state": "CA", "zip": "90028", "addrtype": "premise", "addrlocat": "ROOFTOP" }, "geometry": { "type": "Point", "coordinates": [ -118.3188055, 34.1024056 ] } },
{ "type": "Feature", "properties": { "address": "One Regent Street", "city": "Inglewood", "state": "CA", "zip": "90301", "addrtype": "premise", "addrlocat": "ROOFTOP" }, "geometry": { "type": "Point", "coordinates": [ -118.3555871, 33.9647638 ] } },
{ "type": "Feature", "properties": { "address": "110 Regent Street", "city": "Inglewood", "state": "CA", "zip": "90301", "addrtype": "premise", "addrlocat": "ROOFTOP" }, "geometry": { "type": "Point", "coordinates": [ -118.3543669, 33.9641724 ] } },
{ "type": "Feature", "properties": { "address": "7281 East Quill Drive", "city": "Downey", "state": "CA", "zip": "90242", "addrtype": "street_address", "addrlocat": "ROOFTOP" }, "geometry": { "type": "Point", "coordinates": [ -118.1617372, 33.9329721 ] } },
{ "type": "Feature", "properties": { "address": "1150 North San Fernando Rd", "city": "Los Angeles", "state": "CA", "zip": "90065", "addrtype": "street_address", "addrlocat": "ROOFTOP" }, "geometry": { "type": "Point", "coordinates": [ -118.2294501, 34.0934851 ] } },
{ "type": "Feature", "properties": { "address": "1945 South Hill Street", "city": "Los Angeles", "state": "CA", "zip": "90007", "addrtype": "premise", "addrlocat": "ROOFTOP" }, "geometry": { "type": "Point", "coordinates": [ -118.2677978, 34.0311944 ] } },
{ "type": "Feature", "properties": { "address": "42011 4th Street West", "city": "Lancaster", "state": "CA", "zip": "93534", "addrtype": "premise", "addrlocat": "ROOFTOP" }, "geometry": { "type": "Point", "coordinates": [ -118.1379042, 34.6471131 ] } },
{ "type": "Feature", "properties": { "address": "12720 Norwalk Blvd.", "city": "Norwalk", "state": "CA", "zip": "90650", "addrtype": "premise", "addrlocat": "ROOFTOP" }, "geometry": { "type": "Point", "coordinates": [ -118.0718218, 33.9147588 ] } },
{ "type": "Feature", "properties": { "address": "300 East Walnut Ave.", "city": "Pasadena", "state": "CA", "zip": "91101", "addrtype": "street_address", "addrlocat": "ROOFTOP" }, "geometry": { "type": "Point", "coordinates": [ -118.14357510000001, 34.1492514 ] } },
{ "type": "Feature", "properties": { "address": "400 Civic Center Plaza", "city": "Pomona", "state": "CA", "zip": "91766", "addrtype": "premise", "addrlocat": "ROOFTOP" }, "geometry": { "type": "Point", "coordinates": [ -117.7526234, 34.0538842 ] } },
{ "type": "Feature", "properties": { "address": "900 Third Street", "city": "San Fernando", "state": "CA", "zip": "91340", "addrtype": "premise", "addrlocat": "ROOFTOP" }, "geometry": { "type": "Point", "coordinates": [ -118.4372237, 34.2842786 ] } },
{ "type": "Feature", "properties": { "address": "23747 West Valencia Blvd.", "city": "Santa Clarita", "state": "CA", "zip": "91355", "addrtype": "street_address", "addrlocat": "ROOFTOP" }, "geometry": { "type": "Point", "coordinates": [ -118.5519231, 34.4146734 ] } },
{ "type": "Feature", "properties": { "address": "1725 Main Street", "city": "Santa Monica", "state": "CA", "zip": "90401", "addrtype": "premise", "addrlocat": "ROOFTOP" }, "geometry": { "type": "Point", "coordinates": [ -118.4903358, 34.0108973 ] } },
{ "type": "Feature", "properties": { "address": "111 North Hill Street", "city": "Los Angeles", "state": "CA", "zip": "90012", "addrtype": "street_address", "addrlocat": "ROOFTOP" }, "geometry": { "type": "Point", "coordinates": [ -118.2467442, 34.0551585 ] } },
{ "type": "Feature", "properties": { "address": "16350 Filbert Street", "city": "Sylmar", "state": "CA", "zip": "91342", "addrtype": "street_address", "addrlocat": "ROOFTOP" }, "geometry": { "type": "Point", "coordinates": [ -118.4833969, 34.316059 ] } },
{ "type": "Feature", "properties": { "address": "825 Maple Ave.", "city": "Torrance", "state": "CA", "zip": "90503", "addrtype": "premise", "addrlocat": "ROOFTOP" }, "geometry": { "type": "Point", "coordinates": [ -118.3408668, 33.8385817 ] } },
{ "type": "Feature", "properties": { "address": "6230 Sylmar Ave.", "city": "Van Nuys", "state": "CA", "zip": "91401", "addrtype": "street_address", "addrlocat": "ROOFTOP" }, "geometry": { "type": "Point", "coordinates": [ -118.44595940000001, 34.1832692 ] } },
{ "type": "Feature", "properties": { "address": "14400 Erwin Street Mall", "city": "Van Nuys", "state": "CA", "zip": "91401", "addrtype": "neighborhood", "addrlocat": "APPROXIMATE" }, "geometry": { "type": "Point", "coordinates": [ -118.451357, 34.1898566 ] } },
{ "type": "Feature", "properties": { "address": "1427 West Covina Parkway", "city": "West Covina", "state": "CA", "zip": "91790", "addrtype": "street_address", "addrlocat": "ROOFTOP" }, "geometry": { "type": "Point", "coordinates": [ -117.9381204, 34.0699574 ] } }
]
}
